H1 CPF  1  SGF 2022  2 27  2  5581 larets    
H2  0304206 5557    27944 2022  2 26  0  0  0 2022  3  3 23 57  0   180 1 1  0 0 0
H9
10 0 59639  47520.00000  0    247911.934   1086253.233   6972620.518
10 0 59639  47700.00000  0   1570669.841   1329201.703   6754592.364
10 0 59639  47880.00000  0   2841815.918   1489937.492   6290042.043
10 0 59639  48060.00000  0   4013007.494   1564587.225   5595758.410
10 0 59639  48240.00000  0   5039384.178   1553603.352   4696904.494
10 0 59639  48420.00000  0   5881313.340   1461647.391   3626162.063
10 0 59639  48600.00000  0   6505978.272   1297280.566   2422585.028
10 0 59639  48780.00000  0   6888722.936   1072469.414   1130191.271
10 0 59639  48960.00000  0   7014090.580    801929.860   -203658.647
10 0 59639  49140.00000  0   6876493.805    502340.121  -1530035.992
10 0 59639  49320.00000  0   6480471.281    191461.292  -2800293.006
10 0 59639  49500.00000  0   5840518.596   -112787.094  -3967896.390
10 0 59639  49680.00000  0   4980505.731   -393245.355  -4990165.956
10 0 59639  49860.00000  0   3932713.824   -634376.177  -5829838.598
10 0 59639  50040.00000  0   2736555.666   -823030.518  -6456400.966
10 0 59639  50220.00000  0   1437040.001   -949083.983  -6847154.129
10 0 59639  50400.00000  0     83051.347  -1005915.995  -6987982.504
10 0 59639  50580.00000  0  -1274489.880   -990717.095  -6873822.536
10 0 59639  50760.00000  0  -2584527.095   -904613.392  -6508825.927
10 0 59639  50940.00000  0  -3797769.117   -752605.225  -5906215.346
10 0 59639  51120.00000  0  -4868534.609   -543323.074  -5087841.361
10 0 59639  51300.00000  0  -5756490.615   -288608.399  -4083441.129
10 0 59639  51480.00000  0  -6428216.219     -2934.172  -2929606.120
10 0 59639  51660.00000  0  -6858525.745    297314.363  -1668478.565
10 0 59639  51840.00000  0  -7031483.124    594667.743   -346214.330
10 0 59639  52020.00000  0  -6941045.983    871468.189    988737.222
10 0 59639  52200.00000  0  -6591295.973   1110786.064   2287452.812
10 0 59639  52380.00000  0  -5996251.545   1297308.881   3502375.690
10 0 59639  52560.00000  0  -5179265.038   1418154.490   4589095.647
10 0 59639  52740.00000  0  -4172042.618   1463566.415   5507982.451
10 0 59639  52920.00000  0  -3013351.832   1427458.244   6225611.203
10 0 59639  53100.00000  0  -1747481.835   1307785.311   6715941.382
10 0 59639  53280.00000  0   -422518.772   1106729.244   6961213.563
10 0 59639  53460.00000  0    911484.437    830688.346   6952543.240
10 0 59639  53640.00000  0   2204379.992    490076.294   6690216.992
10 0 59639  53820.00000  0   3407788.430     98935.716   6183688.454
10 0 59639  54000.00000  0   4476900.909   -325623.875   5451271.234
10 0 59639  54180.00000  0   5372162.096   -764147.615   4519525.689
10 0 59639  54360.00000  0   6060773.809  -1195691.138   3422348.440
10 0 59639  54540.00000  0   6517959.839  -1598778.367   2199778.348
10 0 59639  54720.00000  0   6727927.353  -1952418.079    896547.305
10 0 59639  54900.00000  0   6684471.856  -2237130.858   -439572.532
10 0 59639  55080.00000  0   6391186.547  -2435933.763  -1759563.583
10 0 59639  55260.00000  0   5861256.756  -2535226.098  -3015016.725
10 0 59639  55440.00000  0   5116850.335  -2525529.163  -4159954.856
10 0 59639  55620.00000  0   4188145.069  -2402041.961  -5152543.355
10 0 59639  55800.00000  0   3112045.700  -2164988.655  -5956619.583
10 0 59639  55980.00000  0   1930661.522  -1819741.961  -6542978.635
10 0 59639  56160.00000  0    689625.668  -1376722.083  -6890388.359
10 0 59639  56340.00000  0   -563682.424   -851076.668  -6986308.058
10 0 59639  56520.00000  0  -1781938.412   -262158.980  -6827300.749
10 0 59639  56700.00000  0  -2919642.895    367180.961  -6419141.039
10 0 59639  56880.00000  0  -3934804.170   1011470.981  -5776617.043
10 0 59639  57060.00000  0  -4790487.799   1643629.582  -4923035.509
10 0 59639  57240.00000  0  -5456187.441   2236087.306  -3889428.742
10 0 59639  57420.00000  0  -5908958.719   2761976.798  -2713469.708
10 0 59639  57600.00000  0  -6134264.596   3196335.089  -1438124.159
10 0 59639  57780.00000  0  -6126489.979   3517265.495   -110078.461
10 0 59639  57960.00000  0  -5889089.551   3706997.796   1222000.482
10 0 59639  58140.00000  0  -5434352.092   3752786.375   2509298.778
10 0 59639  58320.00000  0  -4782791.462   3647598.063   3704691.222
10 0 59639  58500.00000  0  -3962205.172   3390555.177   4764498.201
10 0 59639  58680.00000  0  -3006452.192   2987112.672   5650087.500
10 0 59639  58860.00000  0  -1954017.843   2448969.392   6329261.844
10 0 59639  59040.00000  0   -846433.639   1793718.415   6777387.738
10 0 59639  59220.00000  0    273372.183   1044255.789   6978234.263
10 0 59639  59400.00000  0   1362726.720    227974.790   6924517.632
10 0 59639  59580.00000  0   2380819.672   -624227.653   6618146.487
10 0 59639  59760.00000  0   3290216.845  -1479105.520   6070166.091
10 0 59639  59940.00000  0   4058237.699  -2302345.834   5300397.682
10 0 59639  60120.00000  0   4658150.347  -3059937.591   4336771.578
10 0 59639  60300.00000  0   5070139.649  -3719579.872   3214366.089
10 0 59639  60480.00000  0   5282009.372  -4252072.778   1974164.699
10 0 59639  60660.00000  0   5289575.343  -4632621.772    661564.252
10 0 59639  60840.00000  0   5096725.102  -4841991.211   -675308.239
10 0 59639  61020.00000  0   4715138.169  -4867443.562  -1987404.549
10 0 59639  61200.00000  0   4163675.287  -4703409.004  -3226610.050
10 0 59639  61380.00000  0   3467468.937  -4351849.589  -4347554.927
10 0 59639  61560.00000  0   2656767.196  -3822301.758  -5309300.656
10 0 59639  61740.00000  0   1765593.818  -3131599.085  -6076828.659
10 0 59639  61920.00000  0    830300.143  -2303301.898  -6622278.755
10 0 59639  62100.00000  0   -111927.696  -1366861.670  -6925914.643
10 0 59639  62280.00000  0  -1024544.945   -356551.138  -6976787.092
10 0 59639  62460.00000  0  -1873050.647    689792.237  -6773090.752
10 0 59639  62640.00000  0  -2626277.467   1732169.724  -6322216.877
10 0 59639  62820.00000  0  -3257527.362   2729932.362  -5640504.163
10 0 59639  63000.00000  0  -3745524.238   3643356.720  -4752691.998
10 0 59639  63180.00000  0  -4075153.677   4435235.165  -3691072.902
10 0 59639  63360.00000  0  -4237951.171   5072413.442  -2494355.425
10 0 59639  63540.00000  0  -4232316.814   5527207.757  -1206274.580
10 0 59639  63720.00000  0  -4063448.325   5778636.179    126010.942
10 0 59639  63900.00000  0  -3742983.325   5813393.754   1453679.411
10 0 59639  64080.00000  0  -3288367.672   5626514.982   2728084.791
10 0 59639  64260.00000  0  -2721976.006   5221683.471   3902590.342
10 0 59639  64440.00000  0  -2070037.891   4611174.917   4934300.634
10 0 59639  64620.00000  0  -1361433.488   3815449.984   5785627.465
10 0 59639  64800.00000  0   -626417.944   2862419.157   6425633.704
10 0 59639  64980.00000  0    104663.057   1786419.908   6831110.206
10 0 59639  65160.00000  0    802611.650    626957.279   6987366.939
10 0 59639  65340.00000  0   1440528.357   -572747.343   6888726.817
10 0 59639  65520.00000  0   1994835.483  -1767351.203   6538719.330
10 0 59639  65700.00000  0   2446143.461  -2911086.231   5949971.124
10 0 59639  65880.00000  0   2779934.793  -3959505.071   5143790.585
10 0 59639  66060.00000  0   2987040.774  -4871217.860   4149447.041
10 0 59639  66240.00000  0   3063894.956  -5609557.237   3003156.725
10 0 59639  66420.00000  0   3012549.169  -6144101.364   1746792.836
10 0 59639  66600.00000  0   2840444.114  -6451978.705    426357.673
10 0 59639  66780.00000  0   2559946.537  -6518886.264   -909724.072
10 0 59639  66960.00000  0   2187670.668  -6339766.878  -2212430.124
10 0 59639  67140.00000  0   1743613.538  -5919095.785  -3433996.914
10 0 59639  67320.00000  0   1250151.139  -5270761.721  -4529718.100
10 0 59639  67500.00000  0    730958.216  -4417551.492  -5459597.878
10 0 59639  67680.00000  0    209908.118  -3390282.748  -6189798.156
10 0 59639  67860.00000  0   -289996.713  -2226629.951  -6693832.540
10 0 59639  68040.00000  0   -747615.457   -969700.862  -6953474.976
10 0 59639  68220.00000  0  -1144541.238    333576.391  -6959369.977
10 0 59639  68400.00000  0  -1465825.905   1634199.099  -6711336.849
10 0 59639  68580.00000  0  -1700535.683   2882911.618  -6218369.156
10 0 59639  68760.00000  0  -1842121.688   4032053.813  -5498335.081
10 0 59639  68940.00000  0  -1888595.269   5037383.529  -4577375.942
10 0 59639  69120.00000  0  -1842501.605   5859808.457  -3489005.508
10 0 59639  69300.00000  0  -1710688.562   6466952.899  -2272924.991
10 0 59639  69480.00000  0  -1503878.714   6834489.516   -973591.155
10 0 59639  69660.00000  0  -1236063.515   6947169.484    361419.248
10 0 59639  69840.00000  0   -923746.672   6799495.218   1683185.603
10 0 59639  70020.00000  0   -585074.507   6395984.920   2943291.821
10 0 59639  70200.00000  0   -238901.479   5751007.833   4095642.290
10 0 59639  70380.00000  0     96156.776   4888223.880   5098168.006
10 0 59639  70560.00000  0    402637.871   3839647.657   5914363.673
10 0 59639  70740.00000  0    665070.329   2644396.958   6514580.734
10 0 59639  70920.00000  0    870693.110   1347192.728   6877058.336
10 0 59639  71100.00000  0   1010030.846     -3332.288   6988663.383
10 0 59639  71280.00000  0   1077305.302  -1356448.718   6845331.191
10 0 59639  71460.00000  0   1070669.077  -2661216.668   6452208.413
10 0 59639  71640.00000  0    992253.598  -3868390.391   5823488.636
10 0 59639  71820.00000  0    848028.963  -4932276.949   4981936.510
10 0 59639  72000.00000  0    647484.784  -5812483.079   3958115.611
10 0 59639  72180.00000  0    403140.758  -6475500.537   2789330.112
10 0 59639  72360.00000  0    129901.594  -6896052.416   1518291.732
10 0 59639  72540.00000  0   -155714.898  -7058128.530    191558.692
10 0 59639  72720.00000  0   -436439.767  -6955656.436  -1142202.847
10 0 59639  72900.00000  0   -695158.316  -6592751.039  -2434060.102
99
